0 CSS (TIANHE-1)
1 48274U 21035A   22365.71707935  .00011695  00000-0  14417-3 0  9995
2 48274  41.4765  96.5076 0005620 250.6488 238.7945 15.60037288 95645
0 ISS (ZARYA)
1 25544U 98067A   22365.69467892  .00015683  00000-0  28422-3 0  9993
2 25544  51.6447  78.1905 0005290 207.9989 287.1035 15.49790136375814
0 TEVEL 6
1 50999U 22002R   22365.64494669  .00012065  00000-0  58975-3 0  9995
2 50999  97.4579  69.6859 0011766  94.4432  59.9419 15.18318441 53309
0 DIWATA 2B
1 43678U 18084H   22365.64218013  .00001152  00000-0  11763-3 0  9992
2 43678  97.9960 141.6158 0009869   3.8475 356.2776 14.92595137227266
0 TEVEL 4
1 51063U 22002CH  22365.64201001  .00011663  00000-0  58121-3 0  9990
2 51063  97.4598  69.4749 0010441  97.5164  57.4280 15.17666793 53285
0 TEVEL 7
1 51062U 22002CG  22365.64004964  .00011641  00000-0  57978-3 0  9993
2 51062  97.4594  69.4793 0010236  96.6456  58.8942 15.17686672 53283
0 TEVEL 8
1 50989U 22002F   22365.63814334  .00011581  00000-0  57685-3 0  9997
2 50989  97.4600  69.4983 0010184  96.3763  59.9472 15.17685493 53289
0 TEVEL 1
1 51013U 22002AF  22365.63204462  .00011514  00000-0  57307-3 0  9998
2 51013  97.4583  69.4156 0010394  99.3016  58.4046 15.17711380 53283
0 TEVEL 2
1 51069U 22002CP  22365.62829184  .00011582  00000-0  57605-3 0  9998
2 51069  97.4579  69.4265 0010268  98.4809  60.1832 15.17738563 53285
0 TEVEL 3
1 50988U 22002E   22365.62663659  .00011482  00000-0  57102-3 0  9991
2 50988  97.4587  69.4461 0010394  98.2721  61.3048 15.17741213 53280
0 OBJECT C
1 54684U 22167C   22365.61798023  .00007627  00000-0  48448-3 0  9992
2 54684  97.5382 140.2242 0014425 187.1267 272.3743 15.09048994  3365
0 XW-2F
1 40910U 15049M   22365.58946285  .00015951  00000-0  59482-3 0  9990
2 40910  97.4708  12.2438 0012264  10.4083  84.3547 15.27439719403222
0 XW-2B
1 40911U 15049N   22365.58574719  .00009511  00000-0  41373-3 0  9995
2 40911  97.4928   8.4804 0013221  33.7366 116.5211 15.22389609402814
0 XW-2A
1 40903U 15049E   22365.58531127  .00053923  00000-0  52307-3 0  9997
2 40903  97.1501  65.4928 0008072 104.0509   2.0092 15.66158157409967
0 SAUDISAT 1C
1 27607U 02058C   22365.58256727  .00001501  00000-0  22387-3 0  9999
2 27607  64.5553  58.4974 0080314 257.1611 102.0510 14.76534958 77474
0 TEVEL 5
1 50998U 22002Q   22365.57171413  .00011989  00000-0  58621-3 0  9997
2 50998  97.4576  69.6174 0011902  95.1644  13.5809 15.18309004 53292
0 XW-3 (CAS 9)
1 50466U 21131B   22365.56888139  .00000375  00000-0  13711-3 0  9996
2 50466  98.5668  82.5886 0003497 280.2089  79.8703 14.38607432 53251
0 XW-2C
1 40906U 15049H   22365.55402838  .00008265  00000-0  36933-3 0  9999
2 40906  97.4958   7.7296 0014149  37.1311  79.8101 15.21505023402869
0 OSCAR 7
1 07530U 74089B   22365.54569521 -.00000021  00000-0  15651-3 0  9993
2 07530 101.9302 346.2112 0012382  25.1967 121.6534 12.53659735202167
0 XW-2D
1 40907U 15049J   22365.53857073  .00009649  00000-0  41787-3 0  9993
2 40907  97.4943   7.9070 0013382  32.6610  85.7896 15.22535245402920
0 LILACSAT 2
1 40908U 15049K   22365.53772690  .00004487  00000-0  22887-3 0  9990
2 40908  97.5224   4.4090 0016339  56.9648  62.8408 15.17144207402353
0 XW-2E
1 40909U 15049L   22365.53758718  .00016101  00000-0  59055-3 0  9999
2 40909  97.4622  13.0049 0011095  11.2896 145.4348 15.27997332403457
0 NEXUS
1 43937U 19003F   22365.52592821  .00023492  00000-0  65094-3 0  9998
2 43937  97.1112  31.6825 0018135 160.6207 199.5731 15.36788481220172
0 BREEZE-KM R/B
1 44909U 19096E   22365.52229132  .00000001  00000-0 -36310-4 0  9994
2 44909  82.5217  99.3610 0216977 218.7325 139.8050 12.79717359140711
0 EYESAT A
1 22825U 93061C   22365.52212190  .00000113  00000-0  61606-4 0  9996
2 22825  98.8658  40.5105 0008247 190.4492 169.6520 14.30223375526327
0 ES'HAIL 2
1 43700U 18090A   22365.51384410  .00000151  00000-0  00000-0 0  9993
2 43700   0.0230  19.2169 0001707 292.0098 359.4474  1.00270215 15004
0 JAS 2
1 24278U 96046B   22365.49089947 -.00000017  00000-0  15972-4 0  9993
2 24278  98.5146   2.0338 0351049 131.8860 231.2799 13.53126710302257
0 FUNCUBE 1
1 39444U 13066AE  22365.48924633  .00003428  00000-0  40162-3 0  9990
2 39444  97.6507 330.9215 0056873 104.7265 256.0263 14.84480570490746
0 AO-95
1 43770U 18099N   22365.44947661  .00004667  00000-0  40383-3 0  9991
2 43770  97.5977  66.5543 0012926 340.4165  19.6560 14.97574649222480
0 JY1SAT
1 43803U 18099AX  22365.43703110  .00004793  00000-0  40654-3 0  9997
2 43803  97.5965  67.3951 0013755 328.3319  31.7075 14.98326314222552
0 ZHUHAI-1 01
1 42761U 17034D   22365.38565447  .00006574  00000-0  36922-3 0  9992
2 42761  43.0182 324.5773 0009221  95.6533  45.3562 15.13835497306185
0 ZHUHAI-1 02
1 42759U 17034B   22365.35962466  .00006662  00000-0  37508-3 0  9997
2 42759  43.0187 326.0813 0008896  92.8187  38.4024 15.13733774306170
0 LAPAN A2
1 40931U 15052B   22365.30338359  .00001228  00000-0  81204-4 0  9994
2 40931   5.9974 204.7451 0012446  74.5818 285.5461 14.76958429392499
0 AO-91
1 43017U 17073E   22365.23546722  .00008154  00000-0  60065-3 0  9990
2 43017  97.6524 251.3041 0241239 262.5549  94.8199 14.83169759276266
0 AO-92
1 43137U 18004AC  22365.16326452  .00021582  00000-0  65057-3 0  9992
2 43137  97.3505  78.9138 0007729  32.5624 327.6095 15.34302175276459
0 NAYIF 1
1 42017U 17008BX  22365.15579474  .00042911  00000-0  95709-3 0  9990
2 42017  97.2443  69.1444 0002659 255.8233 104.2720 15.43445347327315
0 UVSQ-SAT
1 47438U 21006AB  22365.12484875  .00012983  00000-0  63149-3 0  9991
2 47438  97.4124  60.1330 0010142 317.4400  42.6048 15.18489513107091
0 MT-CUBE-2
1 53106U 22080B   22354.08419093 -.00000003  00000-0  00000+0 0  9990
2 53106  70.1702  21.9397 0008914 226.9685 182.2049  6.42557326 10248
